IRIDIUM 921             
1 24873U 97034E   24327.16323983  .00129914  00000+0  13947-2 0  9991
2 24873  86.3742 208.7894 0005558  56.7729 303.4070 15.63351918499622
IRIDIUM 26              
1 24903U 97043A   24327.58335369  .00000773  00000+0  25540-3 0  9996
2 24903  86.4002 197.3108 0002259  81.0534 279.0918 14.36805770427075
IRIDIUM 22              
1 24907U 97043E   24327.62368293  .00000644  00000+0  21670-3 0  9994
2 24907  86.4006 200.6526 0002036  83.4532 276.6896 14.35656263427137
DUMMY MASS 1            
1 24925U 97048A   24327.80100227  .00001066  00000+0  11697-3 0  9997
2 24925  86.3374 230.6628 0007876 141.0446 219.1347 14.86630987474464
DUMMY MASS 2            
1 24926U 97048B   24327.72891955  .00000945  00000+0  10397-3 0  9995
2 24926  86.3372 232.2659 0008210 152.6277 207.5381 14.86385208474235
IRIDIUM 29              
1 24944U 97051A   24327.78595394  .00000851  00000+0  28580-3 0  9992
2 24944  86.3986 230.3801 0002051  86.5300 273.6132 14.36117588423649
IRIDIUM 33              
1 24946U 97051C   24327.75762793  .00000596  00000+0  20367-3 0  9991
2 24946  86.3903 229.6394 0009405  42.5230 317.6693 14.34655741423144
IRIDIUM 28              
1 24948U 97051E   24327.82404887  .00000959  00000+0  31677-3 0  9997
2 24948  86.3994 227.9979 0002542  75.6619 284.4860 14.37066682424207
